#dP2021 10  1  0  0  0.00000000      97 __u+U IGS14 FIT  IAC
## 2177 432000.00000000   900.00000000 59488 0.0000000000000
+  122   C01C02C03C04C05C06C07C08C09C10C11C12C13C14C16C19C20
+        C21C22C23C24C25C26C27C28C29C30C32C33C34C35C36C37C38
+        C39C40C41C42C43C44C45C46C60E01E02E03E04E05E07E08E09
+        E11E12E13E14E15E18E19E21E24E25E26E27E30E31E33E36G01
+        G02G03G04G05G06G07G08G09G10G12G13G14G15G16G17G18G19
+        G20G21G22G23G24G25G26G27G28G29G30G31G32J01J02J03J07
+        R01R02R03R04R05R07R08R09R12R13R14R15R16R17R18R19R20
+        R21R22R24  0  0  0  0  0  0  0  0  0  0  0  0  0  0
++         0  0  0  0  0  0  0  0  0  0  0  0  0  0  0  0  0
++         0  0  0  0  0  0  0  0  0  0  0  0  0  0  0  0  0
++         0  0  0  0  0  0  0  0  0  0  0  0  0  0  0  0  0
++         0  0  0  0  0  0  0  0  0  0  0  0  0  0  0  0  0
++         0  0  0  0  0  0  0  0  0  0  0  0  0  0  0  0  0
++         0  0  0  0  0  0  0  0  0  0  0  0  0  0  0  0  0
++         0  0  0  0  0  0  0  0  0  0  0  0  0  0  0  0  0
++         0  0  0  0  0  0  0  0  0  0  0  0  0  0  0  0  0
%c M  cc GPS ccc cccc cccc cccc cccc ccccc ccccc ccccc ccccc
%c cc cc ccc ccc cccc cccc cccc cccc ccccc ccccc ccccc ccccc
%f  1.2500000  1.025000000  0.00000000000  0.000000000000000
%f  0.0000000  0.000000000  0.00000000000  0.000000000000000
%i    0    0    0    0      0      0      0      0         0
%i    0    0    0    0      0      0      0      0         0
/* INFORMATION & ANALYSIS CENTER (IAC)            FINAL DATA
/* S/V CLOCKS ARE ALIGNED TO GNSS TIME                      
/* G:C1WC2W R:C1PC2P E:C1XC5X C:C2IC6I J:C1CC2S             
/* PCV:IGS14_2163 OL/AL:FES2004  NONE     YN ORB:CoN CLK:CoN
*  2021 10 01  1 30  0.00000000
PC01 -34306.637394  24466.408335    156.822138   -589.739924
PC02   4292.228931  41954.789438    516.977496    289.131603
PC03 -14827.659161  39432.317627   1348.787299    -92.051829
PC04 -39577.699729  14484.531321    229.566749    118.529684
PC05  21900.417390  36021.747032    451.061276    252.115713
PC06 -18749.429286  31177.236948 -21472.341673    268.797096
PC07  -6438.825615  38550.930381 -15631.419273   -163.015056
PC08  -3102.711552  21566.668474  36104.578416   -908.493487
PC09 -10940.904197  29771.448594 -27678.583733   -148.329418
PC10    -88.963827  40914.306976  -8840.032796      3.682687
PC11 -24064.977742  14074.542894     11.041601    605.356121
PC12 -22569.566000   1029.218523 -16322.905732    747.496317
PC13   4818.003496  25167.930060  33646.479463    427.067064
PC14 -13557.162172  13639.955443  20215.439098    612.701689
PC16 -21739.835481  30854.599892 -18877.966921   -784.320133
PC19   8897.930681 -22410.448459 -14045.972240    954.855154
PC20  15489.208913  -4902.954854 -22687.074371   -796.918851
PC21 -13131.285582 -16612.214090  18192.684596   -931.761293
PC22  -3017.239874 -27589.834069   3029.175290   -954.690765
PC23   8150.900633  19389.709195 -18329.052118   -965.727126
PC24 -24580.906449  -2849.819046 -12873.695367   -968.947932
PC25 -10700.520554  12589.490987 -22488.018958   -846.863049
PC26 -23659.081088 -14467.102435   2932.905090    842.511624
PC27  16825.594078   6930.384678  21136.362380    605.896928
PC28  -1504.336969  18011.372461  21261.766173    -20.215171
PC29  18215.413033 -19203.357332  -8856.513116    454.355299
PC30  24888.440781  -8628.939122   9186.493068    482.162327
PC32  13240.597519  16553.402247 -18140.636024   -955.725271
PC33  -8857.737263  22367.349850  14125.531887   -967.876034
PC34 -24974.287004   9204.931542  -8420.640248   -570.053415
PC35   1268.781220 -18260.708142 -21061.390659    -67.383833
PC36  11422.879984 -12069.844467  22449.711366   -769.317440
PC37  22896.202890  15497.701118  -3846.889296   -869.613584
PC38 -12345.734967  20161.656591  34902.067529    179.110361
PC39 -25006.464313  31431.496646 -13082.714110     33.419983
PC40 -10191.942534  35951.534359 -19366.672922    204.319103
PC41   2849.328752  27634.934205  -2626.572905   -929.125576
PC42 -15675.492736   3865.357952  22794.480919   -967.533599
PC43 -18702.348459  18992.996903   8281.050481   -938.938892
PC44 -16987.052367  -6611.625823 -21144.988480    413.960331
PC45  -8376.725458 -19312.817712  18318.633071    561.842065
PC46  24172.535243   1941.356841  13853.504367     60.595928
PC60   7294.773927  41500.110472   1248.103464     -0.727979
PE01 -11234.444312  12740.202030 -24231.678054   -485.929010
PE02  11146.358806 -12862.610653  24223.252418    250.428779
PE03  17546.864847 -22405.938219  -8174.338219   -480.305646
PE04  -5569.121969  27270.212558 -10073.190729   -868.113976
PE05  19417.874643  -4284.534784 -21931.157609   -245.241531
PE07  -9953.111123 -16116.900293  22747.626109   -591.223474
PE08   5222.171610 -27206.958265  10439.208047   5929.003139
PE09  10054.470953  15812.419809 -22913.432266   5513.587138
PE11  19696.019602  11089.218061  19100.633769   5341.837816
PE12  -2364.363851  16257.583302  24620.115516   4983.179489
PE13 -19264.057862 -11215.583493 -19470.049673    422.095460
PE14 -11156.591234 -18155.421948 -24384.472574  -1589.255205
PE15   2349.090757 -16188.335478 -24665.968695    789.326959
PE18  13193.499602   7814.910158  18301.898593  -1744.956087
PE19 -18376.662798  20774.731239  10339.965850    390.925680
PE21 -20637.045397  -6291.128740 -20257.485515   -691.014199
PE24  18040.615855  23232.068318   3410.936898  -1146.658689
PE25  20696.184668   6510.422317  20151.320126   -548.483776
PE26 -29523.221479    838.725424  -1845.401434   1282.105502
PE27 -18578.057502 -22614.207280  -4393.619670   -132.240218
PE30  -4502.790411 -25214.620753  14826.498342   2576.805298
PE31   5638.014989  25512.080810 -13896.850087   -486.230154
PE33 -22503.815991  11613.438539  15324.510556   -464.296402
PE36  29464.490811   -334.530522   2840.605601   -269.768107
PG01 -15246.830724 -13414.007269 -17570.893515    552.235472
PG02  -9332.312789  14338.387094  20994.338502   -635.169254
PG03 -12560.143362 -23292.610176   2760.115346   -308.397583
PG04  -6764.818613 -15027.158094  20818.256411   -204.079156
PG05   4124.702267  24100.984224  10004.317850    -56.171402
PG06 -21901.256383   6758.405976  13527.447940     85.103966
PG07 -25518.316347  -6592.550614   5364.675655    254.772404
PG08   2576.314332 -21730.399982 -14838.466420    -38.439065
PG09 -15607.056967  -3746.893719  21095.875261   -361.541625
PG10  15517.421680  -1322.966803 -21433.466218   -214.382792
PG12  10240.377699  24506.331136   1719.891843   -105.042068
PG13 -11046.134202  21883.537167 -10177.857505    193.083871
PG14 -15739.775189   1332.654937 -21359.278597     -9.776733
PG15    802.734727  21923.567641 -15123.489350   -117.249500
PG16   1810.614621 -22544.372065  13296.332475   -399.550453
PG17 -20005.692788   9291.026841 -14368.578760    512.564153
PG18  25881.070043   5325.216132   3151.181938    316.018457
PG19 -20386.382815  15299.376647  -7428.412113     59.941348
PG20  -3952.754540  18760.449488  18459.684474    518.865475
PG21  -7364.891752 -14514.567527 -20406.491080    145.415678
PG22  -9805.904156 -24245.318799  -5052.807541   -500.237393
PG23  17881.760203  10606.886402 -16595.958639     50.741627
PG24  11120.781378  14707.010962 -19516.590135    245.566660
PG25  16283.340383  18302.115894  10334.622528    217.067874
PG26  10049.844496 -13326.517657  20543.789624    140.041314
PG27  11091.964942 -23047.254797  -6574.863787   -200.211481
PG28 -12432.365032   8658.803336 -21292.127522    491.072287
PG29  12812.814812   7504.350504  21981.519065   -419.652820
PG30 -25918.089067   1356.260302  -6134.903919   -478.102522
PG31  20874.277794  -7833.679359  14680.523191   -142.583376
PG32  19610.782127 -12923.114114 -12116.736878     -5.551650
PJ01 -29436.265513  26269.880678  19740.198458    186.427790
PJ02 -20986.301211  20141.103329 -26016.362788     -2.985508
PJ03 -30287.267949  28857.204010  10350.513318     -2.930664
PJ07 -25375.917934  33662.115797     -9.935513     -0.043359
PR01  -9843.907700  17749.525727  15438.195014     86.056930
PR02  -2150.956619  25133.736401  -3975.777228    495.105817
PR03   6520.704122  16044.090243 -18716.087543     43.901251
PR04  11142.563374  -1964.422769 -22840.218709    107.272423
PR05   9755.122993 -18768.298669 -14233.422546     79.894064
PR07  -6845.799456 -15342.183076  19205.563991    -40.910524
PR08 -11292.686054   2060.263121  22829.478722    -61.249190
PR09  -7383.954065 -16823.731612  17752.192420     15.947650
PR12  -8975.078440   6805.489920 -22852.775073    266.360718
PR13   6669.342813  16347.405189 -18418.148148    -61.452666
PR14  19178.848362  16634.041466  -2370.447103     69.399671
PR15  19888.828089   7087.091535  14337.927720    101.134021
PR16   7989.406984  -7934.422368  22877.749610    -22.379969
PR17  12688.484371   5553.616311  21439.855853    462.882582
PR18  23205.490586  -4060.576688   9744.835801     92.239426
PR19  22305.798915 -10690.264272  -6264.505036   -161.397724
PR20   6460.093598 -12264.012674 -21398.379059    -56.783255
PR21 -13739.362166  -4857.746307 -20925.212570   -243.324222
PR22 -23560.160143   4524.949900  -8803.726127   -136.271976
PR24  -5334.676262  12669.939901  21496.394655     60.819245
EOF
